BRITE-PL2 (HEWELIUSZ)   
1 40119U 14049B   26068.87400651  .00002742  00000+0  26097-3 0  9997
2 40119  97.8982 180.2053 0015445  80.5248 279.7716 14.94186201626611
STARLINK-6051           
1 56463U 23064R   26068.62251617 -.00000185  00000+0 -77445-5 0  9998
2 56463  70.0006 144.7164 0003224 268.7718  91.3071 14.98332799155238
