[{"OBJECT_NAME":"BRITE-PL2 (HEWELIUSZ)","OBJECT_ID":"2014-049B","EPOCH":"2026-03-09T20:58:34.162464","MEAN_MOTION":14.94186201,"ECCENTRICITY":0.00154454,"INCLINATION":97.8982,"RA_OF_ASC_NODE":180.2053,"ARG_OF_PERICENTER":80.5248,"MEAN_ANOMALY":279.7716,"EPHEMERIS_TYPE":0,"CLASSIFICATION_TYPE":"U","NORAD_CAT_ID":40119,"ELEMENT_SET_NO":999,"REV_AT_EPOCH":62661,"BSTAR":0.00026097212,"MEAN_MOTION_DOT":2.742e-5,"MEAN_MOTION_DDOT":0},{"OBJECT_NAME":"STARLINK-6051","OBJECT_ID":"2023-064R","EPOCH":"2026-03-09T14:56:25.397088","MEAN_MOTION":14.98332799,"ECCENTRICITY":0.0003224,"INCLINATION":70.0006,"RA_OF_ASC_NODE":144.7164,"ARG_OF_PERICENTER":268.7718,"MEAN_ANOMALY":91.3071,"EPHEMERIS_TYPE":0,"CLASSIFICATION_TYPE":"U","NORAD_CAT_ID":56463,"ELEMENT_SET_NO":999,"REV_AT_EPOCH":15523,"BSTAR":-7.7445e-6,"MEAN_MOTION_DOT":-1.85e-6,"MEAN_MOTION_DDOT":0}]
